[{"OBJECT_NAME":"ONEWEB-0324","OBJECT_ID":"2021-083H","EPOCH":"2026-03-09T19:31:22.588896","MEAN_MOTION":13.18686329,"ECCENTRICITY":0.00019219,"INCLINATION":87.9252,"RA_OF_ASC_NODE":355.1841,"ARG_OF_PERICENTER":75.9062,"MEAN_ANOMALY":284.2284,"EPHEMERIS_TYPE":0,"CLASSIFICATION_TYPE":"U","NORAD_CAT_ID":49193,"ELEMENT_SET_NO":999,"REV_AT_EPOCH":21690,"BSTAR":-7.8799347e-5,"MEAN_MOTION_DOT":-1.8e-7,"MEAN_MOTION_DDOT":0},{"OBJECT_NAME":"COSMOS 374 DEB","OBJECT_ID":"1970-089K","EPOCH":"2026-03-09T10:49:05.969856","MEAN_MOTION":13.67888998,"ECCENTRICITY":0.06745217,"INCLINATION":62.9248,"RA_OF_ASC_NODE":184.2517,"ARG_OF_PERICENTER":114.5683,"MEAN_ANOMALY":252.716,"EPHEMERIS_TYPE":0,"CLASSIFICATION_TYPE":"U","NORAD_CAT_ID":4667,"ELEMENT_SET_NO":999,"REV_AT_EPOCH":67502,"BSTAR":0.0012077936,"MEAN_MOTION_DOT":5.178e-5,"MEAN_MOTION_DDOT":0}]
